{
    "links": {
        "self": "http://www.neowsapp.com/rest/v1/neo/3393822?api_key=iIulBulltgU6a56xZRHN4H3l9WmuAYTsLGpBGhQ2"
    },
    "id": "3393822",
    "neo_reference_id": "3393822",
    "name": "(2007 VO84)",
    "designation": "2007 VO84",
    "nasa_jpl_url": "http://ssd.jpl.nasa.gov/sbdb.cgi?sstr=3393822",
    "absolute_magnitude_h": 23.6,
    "estimated_diameter": {
        "kilometers": {
            "estimated_diameter_min": 0.0506471459,
            "estimated_diameter_max": 0.1132504611
        },
        "meters": {
            "estimated_diameter_min": 50.6471458835,
            "estimated_diameter_max": 113.2504610618
        },
        "miles": {
            "estimated_diameter_min": 0.0314706677,
            "estimated_diameter_max": 0.0703705522
        },
        "feet": {
            "estimated_diameter_min": 166.1651821003,
            "estimated_diameter_max": 371.5566426699
        }
    },
    "is_potentially_hazardous_asteroid": false,
    "close_approach_data": [
        {
            "close_approach_date": "2007-06-03",
            "close_approach_date_full": "2007-Jun-03 02:52",
            "epoch_date_close_approach": 1180839120000,
            "relative_velocity": {
                "kilometers_per_second": "16.0198459126",
                "kilometers_per_hour": "57671.4452852549",
                "miles_per_hour": "35834.7933218296"
            },
            "miss_distance": {
                "astronomical": "0.4366496255",
                "lunar": "169.8567043195",
                "kilometers": "65321853.911097685",
                "miles": "40589117.877950653"
            },
            "orbiting_body": "Earth"
        },
        {
            "close_approach_date": "2007-11-05",
            "close_approach_date_full": "2007-Nov-05 17:47",
            "epoch_date_close_approach": 1194284820000,
            "relative_velocity": {
                "kilometers_per_second": "14.9867166634",
                "kilometers_per_hour": "53952.179988339",
                "miles_per_hour": "33523.786504421"
            },
            "miss_distance": {
                "astronomical": "0.1532216253",
                "lunar": "59.6032122417",
                "kilometers": "22921628.782818111",
                "miles": "14242839.6763914918"
            },
            "orbiting_body": "Earth"
        }
    ],
    "orbital_data": {
        "orbit_id": "7",
        "orbit_determination_date": "2017-04-06 09:05:17",
        "first_observation_date": "2007-11-08",
        "last_observation_date": "2007-11-09",
        "data_arc_in_days": 1,
        "observations_used": 17,
        "orbit_uncertainty": "9",
        "minimum_orbit_intersection": ".15028",
        "jupiter_tisserand_invariant": "4.840",
        "epoch_osculation": "2454413.5",
        "eccentricity": ".1867644295288018",
        "semi_major_axis": "1.310016346689209",
        "inclination": "28.35934184120566",
        "ascending_node_longitude": "47.61663076964317",
        "orbital_period": "547.6631237990966",
        "perihelion_distance": "1.065351891026394",
        "perihelion_argument": "302.5363275765254",
        "aphelion_distance": "1.554680802352024",
        "perihelion_time": "2454352.643028021927",
        "mean_anomaly": "40.00362441810697",
        "mean_motion": ".6573383971933475",
        "equinox": "J2000",
        "orbit_class": {
            "orbit_class_type": "AMO",
            "orbit_class_description": "Near-Earth asteroid orbits similar to that of 1221 Amor",
            "orbit_class_range": "1.017 AU < q (perihelion) < 1.3 AU"
        }
    },
    "is_sentry_object": false
}